BEIDOU-3 M20 (C42)      
1 44865U 19090B   26073.30245928  .00000019  00000+0  00000+0 0  9995
2 44865  56.4780  65.9600 0017869 303.3279  64.8469  1.86231612 42455
BEIDOU-3 G2 (C60)       
1 45344U 20017A   26073.94090999 -.00000139  00000+0  00000+0 0  9999
2 45344   2.6743  45.7536 0002733 323.3562 222.2179  1.00272381 22310
COSMOS 2545 (760)       
1 45358U 20018A   26073.43405280 -.00000020  00000+0  00000+0 0  9991
2 45358  64.4117 315.7512 0007943 249.5607 110.4169  2.13102766 46640
BEIDOU-3 G3 (C61)       
1 45807U 20040A   26073.94689001 -.00000353  00000+0  00000+0 0  9995
2 45807   2.2142  67.1491 0004839 325.3883 231.4219  1.00270508 21122
GPS BIII-3  (PRN 23)    
1 45854U 20041A   26073.50614851 -.00000050  00000+0  00000+0 0  9995
2 45854  56.6120  32.6177 0061507 205.1523 158.0310  2.00560602 42141
GALAXY 30 (WAAS/PRN 135)
1 46114U 20056C   26073.68632299  .00000000  00000+0  00000+0 0  9990
2 46114   0.0264 153.2110 0002013 213.9429 287.2274  1.00270004 20344
COSMOS 2547 (705K)      
1 46805U 20075A   26071.27634948  .00000011  00000+0  00000+0 0  9996
2 46805  64.5993 195.7069 0007007 230.8854 129.0383  2.13100396 41840
GPS BIII-4  (PRN 14)    
1 46826U 20078A   26073.53960198  .00000012  00000+0  00000+0 0  9993
2 46826  53.9999 214.6151 0068763 204.4949 156.3566  2.00565455 39617
GPS BIII-5  (PRN 11)    
1 48859U 21054A   26073.52842193 -.00000075  00000+0  00000+0 0  9999
2 48859  55.2165 336.2678 0023802 231.6535 305.6629  2.00575107 34853
QZS-1R (QZSS/PRN 196)   
1 49336U 21096A   26073.48417348 -.00000213  00000+0  00000+0 0  9995
2 49336  37.2643  80.9807 0748407 269.9092 130.1920  1.00287959 16061
GSAT0223 (GALILEO 27)   
1 49809U 21116A   26073.28386141 -.00000081  00000+0  00000+0 0  9990
2 49809  57.1915 344.2418 0001958 285.8605 269.7171  1.70475737 26566
GSAT0224 (GALILEO 28)   
1 49810U 21116B   26064.29072237 -.00000105  00000+0  00000+0 0  9998
2 49810  57.1948 344.4822 0001942 295.2728 253.6293  1.70475760 26438
COSMOS 2557 (706K)      
1 52984U 22075A   26072.84916696 -.00000029  00000+0  00000+0 0  9990
2 52984  64.3539 317.8460 0011386 283.8913  76.0424  2.13102035 28686
COSMOS 2559 (707K)      
1 54031U 22130A   26069.38373133 -.00000054  00000+0  00000+0 0  9993
2 54031  64.3280 318.0548 0010624 180.6502 179.4033  2.13101391 26581
COSMOS 2564 (761)       
1 54377U 22161A   26072.51205527  .00000005  00000+0  00000+0 0  9995
2 54377  64.7411 195.8848 0009674 211.5910 148.3349  2.13101956 25590
GPS BIII-6  (PRN 28)    
1 55268U 23009A   26073.72757649  .00000002  00000+0  00000+0 0  9995
2 55268  55.1105 152.2325 0004390 348.8475  10.5503  2.00548582 23340
BEIDOU-3 G4 (C62)       
1 56564U 23066A   26072.17398353 -.00000111  00000+0  00000+0 0  9991
2 56564   0.6336 312.1088 0002647 153.4351 287.9442  1.00272296 10433
